{
  "type": "FeatureCollection",
  "features": [
    {
      "type": "Feature",
      "properties": {
        "norad_id": 29268,
        "name": "ARIRANG-2 (KOMPSAT-2)",
        "group": "resource",
        "lat": -52.79716388409253,
        "lon": 175.98512155386695,
        "alt_km": 677.7085012273628,
        "timestamp": "2025-12-02T13:52:16.932220+00:00",
        "meta_object_name": "ARIRANG-2 (KOMPSAT-2)",
        "meta_object_id": "2006-031A",
        "meta_epoch": "2025-12-02T08:07:09.153696",
        "meta_mean_motion": 14.64478627,
        "meta_eccentricity": 0.00140811,
        "meta_inclination": 97.8265,
        "meta_ra_of_asc_node": 165.3181,
        "meta_arg_of_pericenter": 343.4995,
        "meta_mean_anomaly": 140.3322,
        "meta_ephemeris_type": 0,
        "meta_classification_type": "U",
        "meta_norad_cat_id": 29268,
        "meta_element_set_no": 999,
        "meta_rev_at_epoch": 3266,
        "meta_bstar": 0.00011581323,
        "meta_mean_motion_dot": 5.69e-06,
        "meta_mean_motion_ddot": 0,
        "tle_line1": "1 29268U 06031A   25336.33830039  .00000569  00000+0  11581-3 0  9993",
        "tle_line2": "2 29268  97.8265 165.3181 0014081 343.4995 140.3322 14.64478627 32663"
      },
      "geometry": {
        "type": "Point",
        "coordinates": [
          175.98512155386695,
          -52.79716388409253
        ]
      }
    },
    {
      "type": "Feature",
      "properties": {
        "norad_id": 29709,
        "name": "LAPAN-TUBSAT",
        "group": "resource",
        "lat": -7.754795415832878,
        "lon": 145.41120823557654,
        "alt_km": 614.472668655334,
        "timestamp": "2025-12-02T13:52:16.932231+00:00",
        "meta_object_name": "LAPAN-TUBSAT",
        "meta_object_id": "2007-001A",
        "meta_epoch": "2025-12-02T06:33:52.777728",
        "meta_mean_motion": 14.85644387,
        "meta_eccentricity": 0.00135816,
        "meta_inclination": 98.1251,
        "meta_ra_of_asc_node": 326.2153,
        "meta_arg_of_pericenter": 105.0606,
        "meta_mean_anomaly": 255.2113,
        "meta_ephemeris_type": 0,
        "meta_classification_type": "U",
        "meta_norad_cat_id": 29709,
        "meta_element_set_no": 999,
        "meta_rev_at_epoch": 2191,
        "meta_bstar": 0.00010275245,
        "meta_mean_motion_dot": 8.34e-06,
        "meta_mean_motion_ddot": 0,
        "tle_line1": "1 29709U 07001A   25336.27352752  .00000834  00000+0  10275-3 0  9999",
        "tle_line2": "2 29709  98.1251 326.2153 0013581 105.0606 255.2113 14.85644387 21915"
      },
      "geometry": {
        "type": "Point",
        "coordinates": [
          145.41120823557654,
          -7.754795415832878
        ]
      }
    },
    {
      "type": "Feature",
      "properties": {
        "norad_id": 31113,
        "name": "HAIYANG-1B",
        "group": "resource",
        "lat": -81.63692367495305,
        "lon": 46.622152825736734,
        "alt_km": 805.3796476388779,
        "timestamp": "2025-12-02T13:52:16.932242+00:00",
        "meta_object_name": "HAIYANG-1B",
        "meta_object_id": "2007-010A",
        "meta_epoch": "2025-12-01T23:11:06.848736",
        "meta_mean_motion": 14.30959078,
        "meta_eccentricity": 0.00146137,
        "meta_inclination": 98.3306,
        "meta_ra_of_asc_node": 320.6899,
        "meta_arg_of_pericenter": 67.7414,
        "meta_mean_anomaly": 292.5318,
        "meta_ephemeris_type": 0,
        "meta_classification_type": "U",
        "meta_norad_cat_id": 31113,
        "meta_element_set_no": 999,
        "meta_rev_at_epoch": 97242,
        "meta_bstar": 7.376544e-05,
        "meta_mean_motion_dot": 1.53e-06,
        "meta_mean_motion_ddot": 0,
        "tle_line1": "1 31113U 07010A   25335.96605149  .00000153  00000+0  73765-4 0  9995",
        "tle_line2": "2 31113  98.3306 320.6899 0014613  67.7414 292.5318 14.30959078972421"
      },
      "geometry": {
        "type": "Point",
        "coordinates": [
          46.622152825736734,
          -81.63692367495305
        ]
      }
    },
    {
      "type": "Feature",
      "properties": {
        "norad_id": 31598,
        "name": "COSMO-SKYMED 1",
        "group": "resource",
        "lat": 42.608788051715706,
        "lon": -10.765388738871632,
        "alt_km": 576.2922158342772,
        "timestamp": "2025-12-02T13:52:16.932253+00:00",
        "meta_object_name": "COSMO-SKYMED 1",
        "meta_object_id": "2007-023A",
        "meta_epoch": "2025-12-02T06:50:21.444288",
        "meta_mean_motion": 14.95643437,
        "meta_eccentricity": 0.0001511,
        "meta_inclination": 97.8846,
        "meta_ra_of_asc_node": 161.6163,
        "meta_arg_of_pericenter": 82.9552,
        "meta_mean_anomaly": 277.184,
        "meta_ephemeris_type": 0,
        "meta_classification_type": "U",
        "meta_norad_cat_id": 31598,
        "meta_element_set_no": 999,
        "meta_rev_at_epoch": 34,
        "meta_bstar": 0.00043518864,
        "meta_mean_motion_dot": 4.779e-05,
        "meta_mean_motion_ddot": 0,
        "tle_line1": "1 31598U 07023A   25336.28497042  .00004779  00000+0  43519-3 0  9994",
        "tle_line2": "2 31598  97.8846 161.6163 0001511  82.9552 277.1840 14.95643437   345"
      },
      "geometry": {
        "type": "Point",
        "coordinates": [
          -10.765388738871632,
          42.608788051715706
        ]
      }
    },
    {
      "type": "Feature",
      "properties": {
        "norad_id": 31698,
        "name": "TERRASAR-X",
        "group": "resource",
        "lat": 16.319094042193633,
        "lon": -20.086052268365638,
        "alt_km": 508.6683120825237,
        "timestamp": "2025-12-02T13:52:16.932263+00:00",
        "meta_object_name": "TERRASAR-X",
        "meta_object_id": "2007-026A",
        "meta_epoch": "2025-12-01T15:40:02.654400",
        "meta_mean_motion": 15.19150274,
        "meta_eccentricity": 0.00019062,
        "meta_inclination": 97.4444,
        "meta_ra_of_asc_node": 341.1963,
        "meta_arg_of_pericenter": 89.1201,
        "meta_mean_anomaly": 271.0252,
        "meta_ephemeris_type": 0,
        "meta_classification_type": "U",
        "meta_norad_cat_id": 31698,
        "meta_element_set_no": 999,
        "meta_rev_at_epoch": 2323,
        "meta_bstar": 7.6522775e-05,
        "meta_mean_motion_dot": 1.54e-05,
        "meta_mean_motion_ddot": 0,
        "tle_line1": "1 31698U 07026A   25335.65280850  .00001540  00000+0  76523-4 0  9990",
        "tle_line2": "2 31698  97.4444 341.1963 0001906  89.1201 271.0252 15.19150274 23239"
      },
      "geometry": {
        "type": "Point",
        "coordinates": [
          -20.086052268365638,
          16.319094042193633
        ]
      }
    },
    {
      "type": "Feature",
      "properties": {
        "norad_id": 32060,
        "name": "WORLDVIEW-1 (WV-1)",
        "group": "resource",
        "lat": -0.583038438907577,
        "lon": -85.8717174999773,
        "alt_km": 495.69114257996534,
        "timestamp": "2025-12-02T13:52:16.932273+00:00",
        "meta_object_name": "WORLDVIEW-1 (WV-1)",
        "meta_object_id": "2007-041A",
        "meta_epoch": "2025-12-02T06:46:50.643840",
        "meta_mean_motion": 15.24414803,
        "meta_eccentricity": 7.372e-05,
        "meta_inclination": 97.3833,
        "meta_ra_of_asc_node": 93.9128,
        "meta_arg_of_pericenter": 92.0884,
        "meta_mean_anomaly": 268.0437,
        "meta_ephemeris_type": 0,
        "meta_classification_type": "U",
        "meta_norad_cat_id": 32060,
        "meta_element_set_no": 999,
        "meta_rev_at_epoch": 1288,
        "meta_bstar": 0.00045296717,
        "meta_mean_motion_dot": 0.00011044,
        "meta_mean_motion_ddot": 0,
        "tle_line1": "1 32060U 07041A   25336.28253060  .00011044  00000+0  45297-3 0  9997",
        "tle_line2": "2 32060  97.3833  93.9128 0000737  92.0884 268.0437 15.24414803 12887"
      },
      "geometry": {
        "type": "Point",
        "coordinates": [
          -85.8717174999773,
          -0.583038438907577
        ]
      }
    },
    {
      "type": "Feature",
      "properties": {
        "norad_id": 32289,
        "name": "YAOGAN-3",
        "group": "resource",
        "lat": -21.176419113343044,
        "lon": -179.76358794183432,
        "alt_km": 604.5691477294786,
        "timestamp": "2025-12-02T13:52:16.932284+00:00",
        "meta_object_name": "YAOGAN-3",
        "meta_object_id": "2007-055A",
        "meta_epoch": "2025-12-02T06:31:22.593792",
        "meta_mean_motion": 14.89774559,
        "meta_eccentricity": 0.00015158,
        "meta_inclination": 97.8379,
        "meta_ra_of_asc_node": 2.992,
        "meta_arg_of_pericenter": 77.2587,
        "meta_mean_anomaly": 282.88,
        "meta_ephemeris_type": 0,
        "meta_classification_type": "U",
        "meta_norad_cat_id": 32289,
        "meta_element_set_no": 999,
        "meta_rev_at_epoch": 97653,
        "meta_bstar": 0.00030014516,
        "meta_mean_motion_dot": 2.823e-05,
        "meta_mean_motion_ddot": 0,
        "tle_line1": "1 32289U 07055A   25336.27178928  .00002823  00000+0  30015-3 0  9990",
        "tle_line2": "2 32289  97.8379   2.9920 0001515  77.2587 282.8800 14.89774559976536"
      },
      "geometry": {
        "type": "Point",
        "coordinates": [
          -179.76358794183432,
          -21.176419113343044
        ]
      }
    }
  ]
}